{
  "norad_id": 53898,
  "name": "STARLINK-5044",
  "history": [
    {
      "epoch": "2026-03-28T17:37:24.993984Z",
      "apogee_km": 540.7499186664018,
      "perigee_km": 538.8680989930799,
      "latitude_deg": 3.601788273459455e-06,
      "longitude_deg": 147.84084929494136,
      "height_km": 540.7223685274322,
      "semi_major_axis_km": 6917.94600882974,
      "eccentricity": 0.00013601,
      "inclination_deg": 53.2174,
      "raan_deg": 238.3455,
      "arg_perigee_deg": 91.0756,
      "mean_anomaly_deg": 269.0392,
      "mean_motion_rev_day": 15.08818532
    },
    {
      "epoch": "2026-03-29T03:09:43.803072Z",
      "apogee_km": 540.7218688812345,
      "perigee_km": 538.8720133453808,
      "latitude_deg": 3.455029958103743e-06,
      "longitude_deg": 2.5871432885245955,
      "height_km": 540.759097249182,
      "semi_major_axis_km": 6917.933941113308,
      "eccentricity": 0.0001337,
      "inclination_deg": 53.2176,
      "raan_deg": 236.5619,
      "arg_perigee_deg": 94.1168,
      "mean_anomaly_deg": 265.9977,
      "mean_motion_rev_day": 15.0882248
    },
    {
      "epoch": "2026-03-30T03:00:29.677536Z",
      "apogee_km": 540.7530853884346,
      "perigee_km": 538.7290526230045,
      "latitude_deg": -4.351631444401957e-05,
      "longitude_deg": -0.5460582008750573,
      "height_km": 540.6925695953312,
      "semi_major_axis_km": 6917.878069005719,
      "eccentricity": 0.00014629,
      "inclination_deg": 53.2184,
      "raan_deg": 232.0992,
      "arg_perigee_deg": 93.162,
      "mean_anomaly_deg": 266.9539,
      "mean_motion_rev_day": 15.08840759
    },
    {
      "epoch": "2026-03-30T09:22:02.152416Z",
      "apogee_km": 540.7068062293811,
      "perigee_km": 538.7684177630999,
      "latitude_deg": -4.684545175796328e-05,
      "longitude_deg": -97.38142807432057,
      "height_km": 540.5994973025691,
      "semi_major_axis_km": 6917.87461199624,
      "eccentricity": 0.0001401,
      "inclination_deg": 53.2184,
      "raan_deg": 230.9103,
      "arg_perigee_deg": 87.9967,
      "mean_anomaly_deg": 272.1185,
      "mean_motion_rev_day": 15.0884189
    },
    {
      "epoch": "2026-03-31T15:34:21.776160Z",
      "apogee_km": 540.7249365637736,
      "perigee_km": 538.7173741270926,
      "latitude_deg": -2.0970496537537806e-05,
      "longitude_deg": 162.647433382939,
      "height_km": 540.6590762295951,
      "semi_major_axis_km": 6917.858155345433,
      "eccentricity": 0.0001451,
      "inclination_deg": 53.2167,
      "raan_deg": 225.2614,
      "arg_perigee_deg": 92.4214,
      "mean_anomaly_deg": 267.6944,
      "mean_motion_rev_day": 15.08847274
    },
    {
      "epoch": "2026-04-01T15:25:08.853312Z",
      "apogee_km": 540.7641191611838,
      "perigee_km": 538.6942935922352,
      "latitude_deg": -4.471016320906563e-05,
      "longitude_deg": 159.51252494419805,
      "height_km": 540.6258201731864,
      "semi_major_axis_km": 6917.866206376709,
      "eccentricity": 0.0001496,
      "inclination_deg": 53.2168,
      "raan_deg": 220.802,
      "arg_perigee_deg": 90.0638,
      "mean_anomaly_deg": 270.0525,
      "mean_motion_rev_day": 15.0884464
    },
    {
      "epoch": "2026-04-02T07:18:59.909184Z",
      "apogee_km": 540.8162586590615,
      "perigee_km": 538.6484751142543,
      "latitude_deg": -5.121026808605466e-05,
      "longitude_deg": -82.57669979932953,
      "height_km": 540.6461689832079,
      "semi_major_axis_km": 6917.869366886658,
      "eccentricity": 0.00015668,
      "inclination_deg": 53.216,
      "raan_deg": 217.8284,
      "arg_perigee_deg": 90.9793,
      "mean_anomaly_deg": 269.1378,
      "mean_motion_rev_day": 15.08843606
    },
    {
      "epoch": "2026-04-03T18:17:29.637312Z",
      "apogee_km": 540.8439688386825,
      "perigee_km": 538.6758999394442,
      "latitude_deg": -4.706391340682393e-05,
      "longitude_deg": 104.82136740639548,
      "height_km": 540.6158432431833,
      "semi_major_axis_km": 6917.896934389063,
      "eccentricity": 0.0001567,
      "inclination_deg": 53.219,
      "raan_deg": 211.2867,
      "arg_perigee_deg": 87.902,
      "mean_anomaly_deg": 272.2151,
      "mean_motion_rev_day": 15.08834587
    },
    {
      "epoch": "2026-04-04T14:57:30.281760Z",
      "apogee_km": 540.7256089440752,
      "perigee_km": 538.7747647573842,
      "latitude_deg": 7.207858190708591e-05,
      "longitude_deg": 150.10361298550598,
      "height_km": 540.5630799489971,
      "semi_major_axis_km": 6917.887186850729,
      "eccentricity": 0.000141,
      "inclination_deg": 53.2178,
      "raan_deg": 207.4203,
      "arg_perigee_deg": 85.1315,
      "mean_anomaly_deg": 274.9839,
      "mean_motion_rev_day": 15.08837776
    },
    {
      "epoch": "2026-04-05T13:12:54.353376Z",
      "apogee_km": 540.7286173070261,
      "perigee_km": 538.7792939935443,
      "latitude_deg": 2.379825673474548e-05,
      "longitude_deg": 171.17622770638962,
      "height_km": 540.5494287005112,
      "semi_major_axis_km": 6917.890955650285,
      "eccentricity": 0.00014089,
      "inclination_deg": 53.2181,
      "raan_deg": 203.2573,
      "arg_perigee_deg": 84.0965,
      "mean_anomaly_deg": 276.0188,
      "mean_motion_rev_day": 15.08836543
    },
    {
      "epoch": "2026-04-05T16:23:40.678080Z",
      "apogee_km": 540.7158267975265,
      "perigee_km": 538.7926530328305,
      "latitude_deg": 6.195798314061283e-06,
      "longitude_deg": 122.75771593393517,
      "height_km": 540.5199970979189,
      "semi_major_axis_km": 6917.891239915179,
      "eccentricity": 0.000139,
      "inclination_deg": 53.2179,
      "raan_deg": 202.6624,
      "arg_perigee_deg": 82.2315,
      "mean_anomaly_deg": 277.8835,
      "mean_motion_rev_day": 15.0883645
    },
    {
      "epoch": "2026-04-06T00:20:36.265632Z",
      "apogee_km": 540.7084002567135,
      "perigee_km": 538.7877186488067,
      "latitude_deg": 1.617973460449616e-05,
      "longitude_deg": 1.7130633923240357,
      "height_km": 540.5174665965488,
      "semi_major_axis_km": 6917.885059452759,
      "eccentricity": 0.00013882,
      "inclination_deg": 53.218,
      "raan_deg": 201.1758,
      "arg_perigee_deg": 82.4404,
      "mean_anomaly_deg": 277.6746,
      "mean_motion_rev_day": 15.08838472
    },
    {
      "epoch": "2026-04-07T11:19:05.015712Z",
      "apogee_km": 540.7249141744487,
      "perigee_km": 538.7470942825394,
      "latitude_deg": -3.1699819042901605e-05,
      "longitude_deg": -170.8845259865716,
      "height_km": 540.497232790372,
      "semi_major_axis_km": 6917.873004228493,
      "eccentricity": 0.00014295,
      "inclination_deg": 53.2181,
      "raan_deg": 194.6344,
      "arg_perigee_deg": 82.1841,
      "mean_anomaly_deg": 277.9313,
      "mean_motion_rev_day": 15.08842416
    },
    {
      "epoch": "2026-04-07T16:05:14.123904Z",
      "apogee_km": 540.7357005205604,
      "perigee_km": 538.7184513560169,
      "latitude_deg": 2.4572171509790136e-05,
      "longitude_deg": 116.48880051996711,
      "height_km": 540.545130675276,
      "semi_major_axis_km": 6917.864075938288,
      "eccentricity": 0.0001458,
      "inclination_deg": 53.2175,
      "raan_deg": 193.7415,
      "arg_perigee_deg": 85.5914,
      "mean_anomaly_deg": 274.5245,
      "mean_motion_rev_day": 15.08845337
    },
    {
      "epoch": "2026-04-08T12:45:15.675552Z",
      "apogee_km": 540.7036580620306,
      "perigee_km": 538.8217126316295,
      "latitude_deg": 4.767332320854893e-06,
      "longitude_deg": 161.76795044497746,
      "height_km": 540.6827388989025,
      "semi_major_axis_km": 6917.89968534683,
      "eccentricity": 0.00013602,
      "inclination_deg": 53.2167,
      "raan_deg": 189.8759,
      "arg_perigee_deg": 91.4874,
      "mean_anomaly_deg": 268.6274,
      "mean_motion_rev_day": 15.08833687
    },
    {
      "epoch": "2026-04-09T12:36:02.098656Z",
      "apogee_km": 540.6783911847779,
      "perigee_km": 538.7870456037681,
      "latitude_deg": 2.865339648861333e-05,
      "longitude_deg": 158.63480581935667,
      "height_km": 540.6692324827706,
      "semi_major_axis_km": 6917.869718394272,
      "eccentricity": 0.0001367,
      "inclination_deg": 53.2174,
      "raan_deg": 185.4155,
      "arg_perigee_deg": 92.4739,
      "mean_anomaly_deg": 267.641,
      "mean_motion_rev_day": 15.08843491
    },
    {
      "epoch": "2026-04-10T06:05:16.793376Z",
      "apogee_km": 540.6041212795053,
      "perigee_km": 538.9144942852927,
      "latitude_deg": -3.1140157765039195e-05,
      "longitude_deg": -107.66495124750382,
      "height_km": 540.740276360622,
      "semi_major_axis_km": 6917.896307782399,
      "eccentricity": 0.00012212,
      "inclination_deg": 53.2179,
      "raan_deg": 182.1452,
      "arg_perigee_deg": 95.7751,
      "mean_anomaly_deg": 264.338,
      "mean_motion_rev_day": 15.08834792
    }
  ]
}